STARLINK-35429          
1 66590U 25270C   25347.58336806  .00078537  00000+0  13342-2 0  9996
2 66590  42.9996 187.7994 0001663 261.6452 162.4127 15.50513928  4640
STARLINK-36058          
1 66591U 25270D   25347.58336806  .00085992  00000+0  14594-2 0  9990
2 66591  42.9995 187.7906 0002837 262.7376 165.1686 15.50502401  4536
STARLINK-36066          
1 66592U 25270E   25347.58336806 -.02049855  00000+0 -47305-1 0  9998
2 66592  42.9999 187.8135 0001694 263.8867 154.5783 15.45268842  4434
STARLINK-36031          
1 66593U 25270F   25347.58336806  .00081535  00000+0  13847-2 0  9991
2 66593  42.9996 187.7810 0001516 260.0993 171.6314 15.50508487  4532
STARLINK-36032          
1 66594U 25270G   25347.58336806  .00081298  00000+0  13807-2 0  9994
2 66594  42.9997 187.7756 0001543 264.3644 169.2852 15.50508124  4272
STARLINK-35711          
1 66595U 25270H   25347.58336806  .00098112  00000+0  16624-2 0  9998
2 66595  42.9998 187.7706 0001502 258.0351 177.5456 15.50492920  4648
STARLINK-35811          
1 66596U 25270J   25347.58336806  .00064087  00000+0  15316-2 0  9990
2 66596  42.9993 187.8522 0001938 259.2609 142.6665 15.40639364  4642
STARLINK-35820          
1 66597U 25270K   25347.58336806 -.02097333  00000+0 -45336-1 0  9999
2 66597  42.9997 187.7718 0002001 266.9964 167.7892 15.47225635  4643
STARLINK-35981          
1 66598U 25270L   25347.58336806  .00083077  00000+0  14104-2 0  9996
2 66598  42.9997 187.7563 0001413 255.6246 185.6894 15.50510175  4377
STARLINK-35930          
1 66599U 25270M   25347.58336806  .00105383  00000+0  17834-2 0  9995
2 66599  42.9998 187.7522 0000458 247.9175 195.3228 15.50495205  4530
STARLINK-35980          
1 66600U 25270N   25347.58336806  .00081696  00000+0  13871-2 0  9995
2 66600  42.9998 187.7468 0002643 263.9814 181.1648 15.50512213  4435
STARLINK-35978          
1 66601U 25270P   25347.58336806 -.01908364  00000+0 -35885-1 0  9997
2 66601  42.9996 187.7417 0000905 260.8468 186.1857 15.50839543  4376
