CCSDS_OMM_VERS = 2.0
CREATION_DATE  = 
ORIGINATOR     = 

OBJECT_NAME    = STARLINK-35429
OBJECT_ID      = 2025-270C
CENTER_NAME    = EARTH
REF_FRAME      = TEME
TIME_SYSTEM    = UTC
MEAN_ELEMENT_THEORY = SGP/SGP4

EPOCH          = 2025-12-13T14:00:03.000384
MEAN_MOTION    = 15.50513928
ECCENTRICITY   = .00016636
INCLINATION    = 42.9996
RA_OF_ASC_NODE = 187.7994
ARG_OF_PERICENTER = 261.6452
MEAN_ANOMALY   = 162.4127

EPHEMERIS_TYPE = 0
CLASSIFICATION_TYPE = U
NORAD_CAT_ID   = 66590
ELEMENT_SET_NO = 999
REV_AT_EPOCH   = 464
BSTAR          = .13342114E-2
MEAN_MOTION_DOT = .78537E-3
MEAN_MOTION_DDOT = 0

CCSDS_OMM_VERS = 2.0
CREATION_DATE  = 
ORIGINATOR     = 

OBJECT_NAME    = STARLINK-36058
OBJECT_ID      = 2025-270D
CENTER_NAME    = EARTH
REF_FRAME      = TEME
TIME_SYSTEM    = UTC
MEAN_ELEMENT_THEORY = SGP/SGP4

EPOCH          = 2025-12-13T14:00:03.000384
MEAN_MOTION    = 15.50502401
ECCENTRICITY   = .00028378
INCLINATION    = 42.9995
RA_OF_ASC_NODE = 187.7906
ARG_OF_PERICENTER = 262.7376
MEAN_ANOMALY   = 165.1686

EPHEMERIS_TYPE = 0
CLASSIFICATION_TYPE = U
NORAD_CAT_ID   = 66591
ELEMENT_SET_NO = 999
REV_AT_EPOCH   = 453
BSTAR          = .14594027E-2
MEAN_MOTION_DOT = .85992E-3
MEAN_MOTION_DDOT = 0

CCSDS_OMM_VERS = 2.0
CREATION_DATE  = 
ORIGINATOR     = 

OBJECT_NAME    = STARLINK-36066
OBJECT_ID      = 2025-270E
CENTER_NAME    = EARTH
REF_FRAME      = TEME
TIME_SYSTEM    = UTC
MEAN_ELEMENT_THEORY = SGP/SGP4

EPOCH          = 2025-12-13T14:00:03.000384
MEAN_MOTION    = 15.45268842
ECCENTRICITY   = .00016949
INCLINATION    = 42.9999
RA_OF_ASC_NODE = 187.8135
ARG_OF_PERICENTER = 263.8867
MEAN_ANOMALY   = 154.5783

EPHEMERIS_TYPE = 0
CLASSIFICATION_TYPE = U
NORAD_CAT_ID   = 66592
ELEMENT_SET_NO = 999
REV_AT_EPOCH   = 443
BSTAR          = -.47304505E-1
MEAN_MOTION_DOT = -.2049855E-1
MEAN_MOTION_DDOT = 0

CCSDS_OMM_VERS = 2.0
CREATION_DATE  = 
ORIGINATOR     = 

OBJECT_NAME    = STARLINK-36031
OBJECT_ID      = 2025-270F
CENTER_NAME    = EARTH
REF_FRAME      = TEME
TIME_SYSTEM    = UTC
MEAN_ELEMENT_THEORY = SGP/SGP4

EPOCH          = 2025-12-13T14:00:03.000384
MEAN_MOTION    = 15.50508487
ECCENTRICITY   = .00015169
INCLINATION    = 42.9996
RA_OF_ASC_NODE = 187.7810
ARG_OF_PERICENTER = 260.0993
MEAN_ANOMALY   = 171.6314

EPHEMERIS_TYPE = 0
CLASSIFICATION_TYPE = U
NORAD_CAT_ID   = 66593
ELEMENT_SET_NO = 999
REV_AT_EPOCH   = 453
BSTAR          = .13846617E-2
MEAN_MOTION_DOT = .81535E-3
MEAN_MOTION_DDOT = 0

CCSDS_OMM_VERS = 2.0
CREATION_DATE  = 
ORIGINATOR     = 

OBJECT_NAME    = STARLINK-36032
OBJECT_ID      = 2025-270G
CENTER_NAME    = EARTH
REF_FRAME      = TEME
TIME_SYSTEM    = UTC
MEAN_ELEMENT_THEORY = SGP/SGP4

EPOCH          = 2025-12-13T14:00:03.000384
MEAN_MOTION    = 15.50508124
ECCENTRICITY   = .00015434
INCLINATION    = 42.9997
RA_OF_ASC_NODE = 187.7756
ARG_OF_PERICENTER = 264.3644
MEAN_ANOMALY   = 169.2852

EPHEMERIS_TYPE = 0
CLASSIFICATION_TYPE = U
NORAD_CAT_ID   = 66594
ELEMENT_SET_NO = 999
REV_AT_EPOCH   = 427
BSTAR          = .13807063E-2
MEAN_MOTION_DOT = .81298E-3
MEAN_MOTION_DDOT = 0

CCSDS_OMM_VERS = 2.0
CREATION_DATE  = 
ORIGINATOR     = 

OBJECT_NAME    = STARLINK-35711
OBJECT_ID      = 2025-270H
CENTER_NAME    = EARTH
REF_FRAME      = TEME
TIME_SYSTEM    = UTC
MEAN_ELEMENT_THEORY = SGP/SGP4

EPOCH          = 2025-12-13T14:00:03.000384
MEAN_MOTION    = 15.50492920
ECCENTRICITY   = .00015021
INCLINATION    = 42.9998
RA_OF_ASC_NODE = 187.7706
ARG_OF_PERICENTER = 258.0351
MEAN_ANOMALY   = 177.5456

EPHEMERIS_TYPE = 0
CLASSIFICATION_TYPE = U
NORAD_CAT_ID   = 66595
ELEMENT_SET_NO = 999
REV_AT_EPOCH   = 464
BSTAR          = .16623878E-2
MEAN_MOTION_DOT = .98112E-3
MEAN_MOTION_DDOT = 0

CCSDS_OMM_VERS = 2.0
CREATION_DATE  = 
ORIGINATOR     = 

OBJECT_NAME    = STARLINK-35811
OBJECT_ID      = 2025-270J
CENTER_NAME    = EARTH
REF_FRAME      = TEME
TIME_SYSTEM    = UTC
MEAN_ELEMENT_THEORY = SGP/SGP4

EPOCH          = 2025-12-13T14:00:03.000384
MEAN_MOTION    = 15.40639364
ECCENTRICITY   = .00019387
INCLINATION    = 42.9993
RA_OF_ASC_NODE = 187.8522
ARG_OF_PERICENTER = 259.2609
MEAN_ANOMALY   = 142.6665

EPHEMERIS_TYPE = 0
CLASSIFICATION_TYPE = U
NORAD_CAT_ID   = 66596
ELEMENT_SET_NO = 999
REV_AT_EPOCH   = 464
BSTAR          = .15316273E-2
MEAN_MOTION_DOT = .64087E-3
MEAN_MOTION_DDOT = 0

CCSDS_OMM_VERS = 2.0
CREATION_DATE  = 
ORIGINATOR     = 

OBJECT_NAME    = STARLINK-35820
OBJECT_ID      = 2025-270K
CENTER_NAME    = EARTH
REF_FRAME      = TEME
TIME_SYSTEM    = UTC
MEAN_ELEMENT_THEORY = SGP/SGP4

EPOCH          = 2025-12-13T14:00:03.000384
MEAN_MOTION    = 15.47225635
ECCENTRICITY   = .00020019
INCLINATION    = 42.9997
RA_OF_ASC_NODE = 187.7718
ARG_OF_PERICENTER = 266.9964
MEAN_ANOMALY   = 167.7892

EPHEMERIS_TYPE = 0
CLASSIFICATION_TYPE = U
NORAD_CAT_ID   = 66597
ELEMENT_SET_NO = 999
REV_AT_EPOCH   = 464
BSTAR          = -.45335877E-1
MEAN_MOTION_DOT = -.2097333E-1
MEAN_MOTION_DDOT = 0

CCSDS_OMM_VERS = 2.0
CREATION_DATE  = 
ORIGINATOR     = 

OBJECT_NAME    = STARLINK-35981
OBJECT_ID      = 2025-270L
CENTER_NAME    = EARTH
REF_FRAME      = TEME
TIME_SYSTEM    = UTC
MEAN_ELEMENT_THEORY = SGP/SGP4

EPOCH          = 2025-12-13T14:00:03.000384
MEAN_MOTION    = 15.50510175
ECCENTRICITY   = .00014131
INCLINATION    = 42.9997
RA_OF_ASC_NODE = 187.7563
ARG_OF_PERICENTER = 255.6246
MEAN_ANOMALY   = 185.6894

EPHEMERIS_TYPE = 0
CLASSIFICATION_TYPE = U
NORAD_CAT_ID   = 66598
ELEMENT_SET_NO = 999
REV_AT_EPOCH   = 437
BSTAR          = .14103827E-2
MEAN_MOTION_DOT = .83077E-3
MEAN_MOTION_DDOT = 0

CCSDS_OMM_VERS = 2.0
CREATION_DATE  = 
ORIGINATOR     = 

OBJECT_NAME    = STARLINK-35930
OBJECT_ID      = 2025-270M
CENTER_NAME    = EARTH
REF_FRAME      = TEME
TIME_SYSTEM    = UTC
MEAN_ELEMENT_THEORY = SGP/SGP4

EPOCH          = 2025-12-13T14:00:03.000384
MEAN_MOTION    = 15.50495205
ECCENTRICITY   = .00004584
INCLINATION    = 42.9998
RA_OF_ASC_NODE = 187.7522
ARG_OF_PERICENTER = 247.9175
MEAN_ANOMALY   = 195.3228

EPHEMERIS_TYPE = 0
CLASSIFICATION_TYPE = U
NORAD_CAT_ID   = 66599
ELEMENT_SET_NO = 999
REV_AT_EPOCH   = 453
BSTAR          = .17833519E-2
MEAN_MOTION_DOT = .105383E-2
MEAN_MOTION_DDOT = 0

CCSDS_OMM_VERS = 2.0
CREATION_DATE  = 
ORIGINATOR     = 

OBJECT_NAME    = STARLINK-35980
OBJECT_ID      = 2025-270N
CENTER_NAME    = EARTH
REF_FRAME      = TEME
TIME_SYSTEM    = UTC
MEAN_ELEMENT_THEORY = SGP/SGP4

EPOCH          = 2025-12-13T14:00:03.000384
MEAN_MOTION    = 15.50512213
ECCENTRICITY   = .00026434
INCLINATION    = 42.9998
RA_OF_ASC_NODE = 187.7468
ARG_OF_PERICENTER = 263.9814
MEAN_ANOMALY   = 181.1648

EPHEMERIS_TYPE = 0
CLASSIFICATION_TYPE = U
NORAD_CAT_ID   = 66600
ELEMENT_SET_NO = 999
REV_AT_EPOCH   = 443
BSTAR          = .13870787E-2
MEAN_MOTION_DOT = .81696E-3
MEAN_MOTION_DDOT = 0

CCSDS_OMM_VERS = 2.0
CREATION_DATE  = 
ORIGINATOR     = 

OBJECT_NAME    = STARLINK-35978
OBJECT_ID      = 2025-270P
CENTER_NAME    = EARTH
REF_FRAME      = TEME
TIME_SYSTEM    = UTC
MEAN_ELEMENT_THEORY = SGP/SGP4

EPOCH          = 2025-12-13T14:00:03.000384
MEAN_MOTION    = 15.50839543
ECCENTRICITY   = .0000905
INCLINATION    = 42.9996
RA_OF_ASC_NODE = 187.7417
ARG_OF_PERICENTER = 260.8468
MEAN_ANOMALY   = 186.1857

EPHEMERIS_TYPE = 0
CLASSIFICATION_TYPE = U
NORAD_CAT_ID   = 66601
ELEMENT_SET_NO = 999
REV_AT_EPOCH   = 437
BSTAR          = -.35885356E-1
MEAN_MOTION_DOT = -.1908364E-1
MEAN_MOTION_DDOT = 0

